KUIPER-00008            
1 63724U 25088A   25282.40543329  .00007106  00000+0  59168-3 0  9999
2 63724  51.8909  56.7566 0011058 313.2046  46.8001 14.99576000 25361
KUIPER-00009            
1 63725U 25088B   25282.71872647  .00005677  00000+0  77112-3 0  9992
2 63725  51.9024  54.1989 0012025 323.0588  36.9545 14.80013044 25421
KUIPER-00010            
1 63726U 25088C   25279.84904826 -.00099294  00000+0 -65233-2 0  9998
2 63726  51.8849  45.0815 0016125 354.2684   5.8103 15.07457066 24926
KUIPER-00011            
1 63727U 25088D   25282.91667823 -.00018559  00000+0 -24071-2 0  9994
2 63727  51.9015  37.3820 0012569 341.7383 257.2259 14.79954704  3660
KUIPER-00012            
1 63728U 25088E   25282.67397132  .00003919  00000+0  18805-3 0  9992
2 63728  51.8747  31.5322 0010415 330.5846  29.4546 15.21137480 25443
KUIPER-00013            
1 63729U 25088F   25282.78501492 -.00000203  00000+0  27067-5 0  9997
2 63729  51.9038  55.3709 0008217 247.6201 112.3891 14.79963812 25220
KUIPER-00014            
1 63730U 25088G   25282.71599652 -.00004036  00000+0 -49993-3 0  9996
2 63730  51.9036  56.6449 0007093 313.2098  46.8272 14.79959088 25011
KUIPER-00015            
1 63731U 25088H   25282.76323149 -.00009629  00000+0 -11927-2 0  9996
2 63731  51.8894  68.2164 0009003 305.4984  54.5139 14.81371722 25313
